[
    {
        "Altitude(m)": 703048.8031251847,
        "Argument of Periapsis(deg)": 0.0034170363559881197,
        "Eccentricity": 0.0,
        "Inclination(deg)": 45.0,
        "Latitude(deg)": 20.28013085379217,
        "Longitude(deg)": 103.2260610076007,
        "Mean Anomaly(deg)": 150.73266499424423,
        "RAAN(deg)": 44.996774417562534,
        "Satellite Name": "Constellation 1 207",
        "Satellite Number": 207,
        "Semi-Major Axis(m)": 7083131.272910544,
        "Time(s)": 57
    },
    {
        "Altitude(m)": 703045.4231828863,
        "Argument of Periapsis(deg)": 0.003476984362233526,
        "Eccentricity": 0.0,
        "Inclination(deg)": 45.0,
        "Latitude(deg)": 20.23996383460663,
        "Longitude(deg)": 103.27062868292748,
        "Mean Anomaly(deg)": 150.79336613449414,
        "RAAN(deg)": 44.99671782839697,
        "Satellite Name": "Constellation 1 207",
        "Satellite Number": 207,
        "Semi-Major Axis(m)": 7083131.272910544,
        "Time(s)": 58
    },
    {
        "Altitude(m)": 703042.0569633187,
        "Argument of Periapsis(deg)": 0.003536932368478932,
        "Eccentricity": 0.0,
        "Inclination(deg)": 45.0,
        "Latitude(deg)": 20.199783156986083,
        "Longitude(deg)": 103.31517117198581,
        "Mean Anomaly(deg)": 150.854067274744,
        "RAAN(deg)": 44.9966612392314,
        "Satellite Name": "Constellation 1 207",
        "Satellite Number": 207,
        "Semi-Major Axis(m)": 7083131.272910544,
        "Time(s)": 59
    },
    {
        "Altitude(m)": 703038.7044983336,
        "Argument of Periapsis(deg)": 0.003596880374724337,
        "Eccentricity": 0.0,
        "Inclination(deg)": 45.0,
        "Latitude(deg)": 20.15958885716704,
        "Longitude(deg)": 103.35968886930152,
        "Mean Anomaly(deg)": 150.91476841499394,
        "RAAN(deg)": 44.996604650065834,
        "Satellite Name": "Constellation 1 207",
        "Satellite Number": 207,
        "Semi-Major Axis(m)": 7083131.272910544,
        "Time(s)": 60
    },
    {
        "Altitude(m)": 703035.3658197321,
        "Argument of Periapsis(deg)": 0.0036568283809697427,
        "Eccentricity": 0.0,
        "Inclination(deg)": 45.0,
        "Latitude(deg)": 20.119380971337083,
        "Longitude(deg)": 103.40418166508103,
        "Mean Anomaly(deg)": 150.97546955524382,
        "RAAN(deg)": 44.99654806090026,
        "Satellite Name": "Constellation 1 207",
        "Satellite Number": 207,
        "Semi-Major Axis(m)": 7083131.272910544,
        "Time(s)": 61
    },
    {
        "Altitude(m)": 703032.0409592635,
        "Argument of Periapsis(deg)": 0.003716776387215149,
        "Eccentricity": 0.0,
        "Inclination(deg)": 45.0,
        "Latitude(deg)": 20.079159535634275,
        "Longitude(deg)": 103.44864961760051,
        "Mean Anomaly(deg)": 151.03617069549375,
        "RAAN(deg)": 44.99649147173469,
        "Satellite Name": "Constellation 1 207",
        "Satellite Number": 207,
        "Semi-Major Axis(m)": 7083131.272910544,
        "Time(s)": 62
    },
    {
        "Altitude(m)": 703028.7299486181,
        "Argument of Periapsis(deg)": 0.003776724393460554,
        "Eccentricity": 0.0,
        "Inclination(deg)": 45.0,
        "Latitude(deg)": 20.038924586147985,
        "Longitude(deg)": 103.4930927851079,
        "Mean Anomaly(deg)": 151.09687183574363,
        "RAAN(deg)": 44.99643488256912,
        "Satellite Name": "Constellation 1 207",
        "Satellite Number": 207,
        "Semi-Major Axis(m)": 7083131.272910544,
        "Time(s)": 63
    },
    {
        "Altitude(m)": 703025.432819442,
        "Argument of Periapsis(deg)": 0.003836672399705959,
        "Eccentricity": 0.0,
        "Inclination(deg)": 45.0,
        "Latitude(deg)": 19.998676158918403,
        "Longitude(deg)": 103.53751122582355,
        "Mean Anomaly(deg)": 151.15757297599353,
        "RAAN(deg)": 44.99637829340355,
        "Satellite Name": "Constellation 1 207",
        "Satellite Number": 207,
        "Semi-Major Axis(m)": 7083131.272910544,
        "Time(s)": 64
    },
    {
        "Altitude(m)": 703022.1496033213,
        "Argument of Periapsis(deg)": 0.003896620405951365,
        "Eccentricity": 0.0,
        "Inclination(deg)": 45.0,
        "Latitude(deg)": 19.958414289937064,
        "Longitude(deg)": 103.58190499793955,
        "Mean Anomaly(deg)": 151.2182741162434,
        "RAAN(deg)": 44.99632170423798,
        "Satellite Name": "Constellation 1 207",
        "Satellite Number": 207,
        "Semi-Major Axis(m)": 7083131.272910544,
        "Time(s)": 65
    },
    {
        "Altitude(m)": 703018.880331797,
        "Argument of Periapsis(deg)": 0.003956568412196771,
        "Eccentricity": 0.0,
        "Inclination(deg)": 45.0,
        "Latitude(deg)": 19.918139015146778,
        "Longitude(deg)": 103.62627415962,
        "Mean Anomaly(deg)": 151.27897525649334,
        "RAAN(deg)": 44.99626511507241,
        "Satellite Name": "Constellation 1 207",
        "Satellite Number": 207,
        "Semi-Major Axis(m)": 7083131.272910544,
        "Time(s)": 66
    },
    {
        "Altitude(m)": 703015.6250363485,
        "Argument of Periapsis(deg)": 0.004016516418442176,
        "Eccentricity": 0.0,
        "Inclination(deg)": 45.0,
        "Latitude(deg)": 19.877850370441838,
        "Longitude(deg)": 103.67061860090352,
        "Mean Anomaly(deg)": 151.33967639674322,
        "RAAN(deg)": 44.99620852590684,
        "Satellite Name": "Constellation 1 207",
        "Satellite Number": 207,
        "Semi-Major Axis(m)": 7083131.272910544,
        "Time(s)": 67
    },
    {
        "Altitude(m)": 703012.3837484035,
        "Argument of Periapsis(deg)": 0.004076464424687581,
        "Eccentricity": 0.0,
        "Inclination(deg)": 45.0,
        "Latitude(deg)": 19.837548391667877,
        "Longitude(deg)": 103.71493871609215,
        "Mean Anomaly(deg)": 151.40037753699315,
        "RAAN(deg)": 44.99615193674127,
        "Satellite Name": "Constellation 1 207",
        "Satellite Number": 207,
        "Semi-Major Axis(m)": 7083131.272910544,
        "Time(s)": 68
    },
    {
        "Altitude(m)": 703009.1564993444,
        "Argument of Periapsis(deg)": 0.004136412430932987,
        "Eccentricity": 0.0,
        "Inclination(deg)": 45.0,
        "Latitude(deg)": 19.797233114622422,
        "Longitude(deg)": 103.75923439516804,
        "Mean Anomaly(deg)": 151.46107867724302,
        "RAAN(deg)": 44.996095347575704,
        "Satellite Name": "Constellation 1 207",
        "Satellite Number": 207,
        "Semi-Major Axis(m)": 7083131.272910544,
        "Time(s)": 69
    },
    {
        "Altitude(m)": 703005.9433204903,
        "Argument of Periapsis(deg)": 0.004196360437178394,
        "Eccentricity": 0.0,
        "Inclination(deg)": 45.0,
        "Latitude(deg)": 19.756904575054666,
        "Longitude(deg)": 103.80350569618193,
        "Mean Anomaly(deg)": 151.52177981749293,
        "RAAN(deg)": 44.99603875841014,
        "Satellite Name": "Constellation 1 207",
        "Satellite Number": 207,
        "Semi-Major Axis(m)": 7083131.272910544,
        "Time(s)": 70
    },
    {
        "Altitude(m)": 703002.744243111,
        "Argument of Periapsis(deg)": 0.004256308443423799,
        "Eccentricity": 0.0,
        "Inclination(deg)": 45.0,
        "Latitude(deg)": 19.716562808665728,
        "Longitude(deg)": 103.8477526771564,
        "Mean Anomaly(deg)": 151.5824809577428,
        "RAAN(deg)": 44.99598216924456,
        "Satellite Name": "Constellation 1 207",
        "Satellite Number": 207,
        "Semi-Major Axis(m)": 7083131.272910544,
        "Time(s)": 71
    },
    {
        "Altitude(m)": 702999.5592984195,
        "Argument of Periapsis(deg)": 0.004316256449669204,
        "Eccentricity": 0.0,
        "Inclination(deg)": 45.0,
        "Latitude(deg)": 19.6762078511087,
        "Longitude(deg)": 103.89197539608519,
        "Mean Anomaly(deg)": 151.64318209799274,
        "RAAN(deg)": 44.995925580078996,
        "Satellite Name": "Constellation 1 207",
        "Satellite Number": 207,
        "Semi-Major Axis(m)": 7083131.272910544,
        "Time(s)": 72
    },
    {
        "Altitude(m)": 702996.3885175779,
        "Argument of Periapsis(deg)": 0.00437620445591461,
        "Eccentricity": 0.0,
        "Inclination(deg)": 45.0,
        "Latitude(deg)": 19.635839737988842,
        "Longitude(deg)": 103.93617391093348,
        "Mean Anomaly(deg)": 151.7038832382426,
        "RAAN(deg)": 44.99586899091342,
        "Satellite Name": "Constellation 1 207",
        "Satellite Number": 207,
        "Semi-Major Axis(m)": 7083131.272910544,
        "Time(s)": 73
    },
    {
        "Altitude(m)": 702993.2319316978,
        "Argument of Periapsis(deg)": 0.004436152462160016,
        "Eccentricity": 0.0,
        "Inclination(deg)": 45.0,
        "Latitude(deg)": 19.595458504863625,
        "Longitude(deg)": 103.98034811154074,
        "Mean Anomaly(deg)": 151.76458437849251,
        "RAAN(deg)": 44.995812401747855,
        "Satellite Name": "Constellation 1 207",
        "Satellite Number": 207,
        "Semi-Major Axis(m)": 7083131.272910544,
        "Time(s)": 74
    },
    {
        "Altitude(m)": 702990.0895718237,
        "Argument of Periapsis(deg)": 0.0044961004684054215,
        "Eccentricity": 0.0,
        "Inclination(deg)": 45.0,
        "Latitude(deg)": 19.555064187242913,
        "Longitude(deg)": 104.02449839200885,
        "Mean Anomaly(deg)": 151.82528551874242,
        "RAAN(deg)": 44.99575581258228,
        "Satellite Name": "Constellation 1 207",
        "Satellite Number": 207,
        "Semi-Major Axis(m)": 7083131.272910544,
        "Time(s)": 75
    }
]